ORBCOMM FM103           
1 40091U 14040F   25017.69780232  .00001381  00000+0  33645-3 0  9991
2 40091  47.0069   8.2867 0002773 307.0995  52.9637 14.57698994542145
ORBCOMM FM114           
1 41179U 15081A   25017.79330267  .00001250  00000+0  30748-3 0  9991
2 41179  47.0027 276.9815 0002064  13.5563 346.5377 14.57766214482526
ORBCOMM FM119           
1 41180U 15081B   25017.77344656  .00001319  00000+0  32301-3 0  9991
2 41180  46.9990 186.3269 0000662 127.4037 232.6908 14.57672746483774
ORBCOMM FM105           
1 41181U 15081C   25017.77576636  .00000638  00000+0  22604-3 0  9995
2 41181  46.9999 176.7571 0001392 343.0982  16.9851 14.44973508478993
ORBCOMM FM110           
1 41182U 15081D   25017.90552919  .00001773  00000+0  42022-3 0  9996
2 41182  47.0018 275.8169 0001398 176.5804 183.5091 14.57825418482419
ORBCOMM FM118           
1 41183U 15081E   25017.74996369  .00001731  00000+0  41181-3 0  9999
2 41183  47.0042 276.9554 0001840 170.6801 189.4119 14.57750789482493
ORBCOMM FM112           
1 41184U 15081F   25017.74987757  .00001776  00000+0  42244-3 0  9991
2 41184  46.9974 185.6099 0000111  41.9072 318.1822 14.57650956483719
ORBCOMM FM113           
1 41185U 15081G   25017.72682938  .00001789  00000+0  42451-3 0  9997
2 41185  46.9991 186.0220 0000688 135.7032 224.3908 14.57734152483698
